KUIPER-00160            
1 67765U 26030B   26070.71637262  .00038631  00000+0  10995-2 0  9997
2 67765  51.8821 209.4037 0005373  58.5766 301.5745 15.35735349  5407
KUIPER-00177            
1 67766U 26030C   26070.91667824  .00040864  00000+0  13712-2 0  9998
2 67766  51.8849 208.2991 0002252  14.4192  74.3260 15.30478688  5335
KUIPER-00178            
1 67767U 26030D   26070.91359715  .00040727  00000+0  11764-2 0  9999
2 67767  51.8842 208.4831 0009492  44.2346 315.9398 15.35218387  5439
KUIPER-00180            
1 67768U 26030E   26070.91667824  .00028024  00000+0  95140-3 0  9990
2 67768  51.8811 208.9943 0014843  75.3474  38.3372 15.30188912  2157
KUIPER-00197            
1 67769U 26030F   26070.70307562  .00039371  00000+0  10932-2 0  9990
2 67769  51.8848 209.3242 0001565  44.9817 315.1297 15.36506456  5401
KUIPER-00198            
1 67770U 26030G   26070.83936073  .00035453  00000+0  99515-3 0  9993
2 67770  51.8816 208.7317 0003517  41.4846 318.6407 15.36215522  5421
KUIPER-00199            
1 67771U 26030H   26070.86822972  .00023258  00000+0  69357-3 0  9990
2 67771  51.8807 208.9132 0010791  67.1463 293.0661 15.34495063  5427
KUIPER-00200            
1 67772U 26030J   26070.88691696  .00039816  00000+0  10798-2 0  9991
2 67772  51.8817 208.3059 0001509 312.4392  47.6467 15.37234472  5431
KUIPER-00203            
1 67773U 26030K   26070.91667824 -.01136224  00000+0 -77809-1 0  9991
2 67773  51.8901 209.7683 0011320  67.8462 334.8078 15.08567422  3995
KUIPER-00205            
1 67774U 26030L   26070.76874349  .00041017  00000+0  11365-2 0  9995
2 67774  51.8809 209.0087 0003294  20.2967 339.8150 15.36551345  5411
KUIPER-00208            
1 67775U 26030M   26070.75951090  .00042305  00000+0  13390-2 0  9995
2 67775  51.8837 209.6888 0015677  64.6530 295.6077 15.32229356  5400
KUIPER-00209            
1 67776U 26030N   26070.90394543 -.00029302  00000+0 -98812-3 0  9994
2 67776  51.8837 209.1524 0012748  69.4648 290.7702 15.29846770  5426
