CCSDS_OMM_VERS = 2.0
CREATION_DATE  = 
ORIGINATOR     = 

OBJECT_NAME    = KUIPER-00160
OBJECT_ID      = 2026-030B
CENTER_NAME    = EARTH
REF_FRAME      = TEME
TIME_SYSTEM    = UTC
MEAN_ELEMENT_THEORY = SGP/SGP4

EPOCH          = 2026-03-11T17:11:34.594368
MEAN_MOTION    = 15.35735349
ECCENTRICITY   = .00053737
INCLINATION    = 51.8821
RA_OF_ASC_NODE = 209.4037
ARG_OF_PERICENTER = 58.5766
MEAN_ANOMALY   = 301.5745

EPHEMERIS_TYPE = 0
CLASSIFICATION_TYPE = U
NORAD_CAT_ID   = 67765
ELEMENT_SET_NO = 999
REV_AT_EPOCH   = 540
BSTAR          = .10994692E-2
MEAN_MOTION_DOT = .38631E-3
MEAN_MOTION_DDOT = 0

CCSDS_OMM_VERS = 2.0
CREATION_DATE  = 
ORIGINATOR     = 

OBJECT_NAME    = KUIPER-00177
OBJECT_ID      = 2026-030C
CENTER_NAME    = EARTH
REF_FRAME      = TEME
TIME_SYSTEM    = UTC
MEAN_ELEMENT_THEORY = SGP/SGP4

EPOCH          = 2026-03-11T22:00:00.999936
MEAN_MOTION    = 15.30478688
ECCENTRICITY   = .00022523
INCLINATION    = 51.8849
RA_OF_ASC_NODE = 208.2991
ARG_OF_PERICENTER = 14.4192
MEAN_ANOMALY   = 74.3260

EPHEMERIS_TYPE = 0
CLASSIFICATION_TYPE = U
NORAD_CAT_ID   = 67766
ELEMENT_SET_NO = 999
REV_AT_EPOCH   = 533
BSTAR          = .13711605E-2
MEAN_MOTION_DOT = .40864E-3
MEAN_MOTION_DDOT = 0

CCSDS_OMM_VERS = 2.0
CREATION_DATE  = 
ORIGINATOR     = 

OBJECT_NAME    = KUIPER-00178
OBJECT_ID      = 2026-030D
CENTER_NAME    = EARTH
REF_FRAME      = TEME
TIME_SYSTEM    = UTC
MEAN_ELEMENT_THEORY = SGP/SGP4

EPOCH          = 2026-03-11T21:55:34.793760
MEAN_MOTION    = 15.35218387
ECCENTRICITY   = .00094926
INCLINATION    = 51.8842
RA_OF_ASC_NODE = 208.4831
ARG_OF_PERICENTER = 44.2346
MEAN_ANOMALY   = 315.9398

EPHEMERIS_TYPE = 0
CLASSIFICATION_TYPE = U
NORAD_CAT_ID   = 67767
ELEMENT_SET_NO = 999
REV_AT_EPOCH   = 543
BSTAR          = .11764034E-2
MEAN_MOTION_DOT = .40727E-3
MEAN_MOTION_DDOT = 0

CCSDS_OMM_VERS = 2.0
CREATION_DATE  = 
ORIGINATOR     = 

OBJECT_NAME    = KUIPER-00180
OBJECT_ID      = 2026-030E
CENTER_NAME    = EARTH
REF_FRAME      = TEME
TIME_SYSTEM    = UTC
MEAN_ELEMENT_THEORY = SGP/SGP4

EPOCH          = 2026-03-11T22:00:00.999936
MEAN_MOTION    = 15.30188912
ECCENTRICITY   = .0014843
INCLINATION    = 51.8811
RA_OF_ASC_NODE = 208.9943
ARG_OF_PERICENTER = 75.3474
MEAN_ANOMALY   = 38.3372

EPHEMERIS_TYPE = 0
CLASSIFICATION_TYPE = U
NORAD_CAT_ID   = 67768
ELEMENT_SET_NO = 999
REV_AT_EPOCH   = 215
BSTAR          = .95140442E-3
MEAN_MOTION_DOT = .28024E-3
MEAN_MOTION_DDOT = 0

CCSDS_OMM_VERS = 2.0
CREATION_DATE  = 
ORIGINATOR     = 

OBJECT_NAME    = KUIPER-00197
OBJECT_ID      = 2026-030F
CENTER_NAME    = EARTH
REF_FRAME      = TEME
TIME_SYSTEM    = UTC
MEAN_ELEMENT_THEORY = SGP/SGP4

EPOCH          = 2026-03-11T16:52:25.733568
MEAN_MOTION    = 15.36506456
ECCENTRICITY   = .00015656
INCLINATION    = 51.8848
RA_OF_ASC_NODE = 209.3242
ARG_OF_PERICENTER = 44.9817
MEAN_ANOMALY   = 315.1297

EPHEMERIS_TYPE = 0
CLASSIFICATION_TYPE = U
NORAD_CAT_ID   = 67769
ELEMENT_SET_NO = 999
REV_AT_EPOCH   = 540
BSTAR          = .10932447E-2
MEAN_MOTION_DOT = .39371E-3
MEAN_MOTION_DDOT = 0

CCSDS_OMM_VERS = 2.0
CREATION_DATE  = 
ORIGINATOR     = 

OBJECT_NAME    = KUIPER-00198
OBJECT_ID      = 2026-030G
CENTER_NAME    = EARTH
REF_FRAME      = TEME
TIME_SYSTEM    = UTC
MEAN_ELEMENT_THEORY = SGP/SGP4

EPOCH          = 2026-03-11T20:08:40.767072
MEAN_MOTION    = 15.36215522
ECCENTRICITY   = .00035172
INCLINATION    = 51.8816
RA_OF_ASC_NODE = 208.7317
ARG_OF_PERICENTER = 41.4846
MEAN_ANOMALY   = 318.6407

EPHEMERIS_TYPE = 0
CLASSIFICATION_TYPE = U
NORAD_CAT_ID   = 67770
ELEMENT_SET_NO = 999
REV_AT_EPOCH   = 542
BSTAR          = .9951526E-3
MEAN_MOTION_DOT = .35453E-3
MEAN_MOTION_DDOT = 0

CCSDS_OMM_VERS = 2.0
CREATION_DATE  = 
ORIGINATOR     = 

OBJECT_NAME    = KUIPER-00199
OBJECT_ID      = 2026-030H
CENTER_NAME    = EARTH
REF_FRAME      = TEME
TIME_SYSTEM    = UTC
MEAN_ELEMENT_THEORY = SGP/SGP4

EPOCH          = 2026-03-11T20:50:15.047808
MEAN_MOTION    = 15.34495063
ECCENTRICITY   = .00107912
INCLINATION    = 51.8807
RA_OF_ASC_NODE = 208.9132
ARG_OF_PERICENTER = 67.1463
MEAN_ANOMALY   = 293.0661

EPHEMERIS_TYPE = 0
CLASSIFICATION_TYPE = U
NORAD_CAT_ID   = 67771
ELEMENT_SET_NO = 999
REV_AT_EPOCH   = 542
BSTAR          = .69357365E-3
MEAN_MOTION_DOT = .23258E-3
MEAN_MOTION_DDOT = 0

CCSDS_OMM_VERS = 2.0
CREATION_DATE  = 
ORIGINATOR     = 

OBJECT_NAME    = KUIPER-00200
OBJECT_ID      = 2026-030J
CENTER_NAME    = EARTH
REF_FRAME      = TEME
TIME_SYSTEM    = UTC
MEAN_ELEMENT_THEORY = SGP/SGP4

EPOCH          = 2026-03-11T21:17:09.625344
MEAN_MOTION    = 15.37234472
ECCENTRICITY   = .00015097
INCLINATION    = 51.8817
RA_OF_ASC_NODE = 208.3059
ARG_OF_PERICENTER = 312.4392
MEAN_ANOMALY   = 47.6467

EPHEMERIS_TYPE = 0
CLASSIFICATION_TYPE = U
NORAD_CAT_ID   = 67772
ELEMENT_SET_NO = 999
REV_AT_EPOCH   = 543
BSTAR          = .10798102E-2
MEAN_MOTION_DOT = .39816E-3
MEAN_MOTION_DDOT = 0

CCSDS_OMM_VERS = 2.0
CREATION_DATE  = 
ORIGINATOR     = 

OBJECT_NAME    = KUIPER-00203
OBJECT_ID      = 2026-030K
CENTER_NAME    = EARTH
REF_FRAME      = TEME
TIME_SYSTEM    = UTC
MEAN_ELEMENT_THEORY = SGP/SGP4

EPOCH          = 2026-03-11T22:00:00.999936
MEAN_MOTION    = 15.08567422
ECCENTRICITY   = .00113204
INCLINATION    = 51.8901
RA_OF_ASC_NODE = 209.7683
ARG_OF_PERICENTER = 67.8462
MEAN_ANOMALY   = 334.8078

EPHEMERIS_TYPE = 0
CLASSIFICATION_TYPE = U
NORAD_CAT_ID   = 67773
ELEMENT_SET_NO = 999
REV_AT_EPOCH   = 399
BSTAR          = -.77808708E-1
MEAN_MOTION_DOT = -.1136224E-1
MEAN_MOTION_DDOT = 0

CCSDS_OMM_VERS = 2.0
CREATION_DATE  = 
ORIGINATOR     = 

OBJECT_NAME    = KUIPER-00205
OBJECT_ID      = 2026-030L
CENTER_NAME    = EARTH
REF_FRAME      = TEME
TIME_SYSTEM    = UTC
MEAN_ELEMENT_THEORY = SGP/SGP4

EPOCH          = 2026-03-11T18:26:59.437536
MEAN_MOTION    = 15.36551345
ECCENTRICITY   = .00032942
INCLINATION    = 51.8809
RA_OF_ASC_NODE = 209.0087
ARG_OF_PERICENTER = 20.2967
MEAN_ANOMALY   = 339.8150

EPHEMERIS_TYPE = 0
CLASSIFICATION_TYPE = U
NORAD_CAT_ID   = 67774
ELEMENT_SET_NO = 999
REV_AT_EPOCH   = 541
BSTAR          = .11365235E-2
MEAN_MOTION_DOT = .41017E-3
MEAN_MOTION_DDOT = 0

CCSDS_OMM_VERS = 2.0
CREATION_DATE  = 
ORIGINATOR     = 

OBJECT_NAME    = KUIPER-00208
OBJECT_ID      = 2026-030M
CENTER_NAME    = EARTH
REF_FRAME      = TEME
TIME_SYSTEM    = UTC
MEAN_ELEMENT_THEORY = SGP/SGP4

EPOCH          = 2026-03-11T18:13:41.741760
MEAN_MOTION    = 15.32229356
ECCENTRICITY   = .0015677
INCLINATION    = 51.8837
RA_OF_ASC_NODE = 209.6888
ARG_OF_PERICENTER = 64.6530
MEAN_ANOMALY   = 295.6077

EPHEMERIS_TYPE = 0
CLASSIFICATION_TYPE = U
NORAD_CAT_ID   = 67775
ELEMENT_SET_NO = 999
REV_AT_EPOCH   = 540
BSTAR          = .13390136E-2
MEAN_MOTION_DOT = .42305E-3
MEAN_MOTION_DDOT = 0

CCSDS_OMM_VERS = 2.0
CREATION_DATE  = 
ORIGINATOR     = 

OBJECT_NAME    = KUIPER-00209
OBJECT_ID      = 2026-030N
CENTER_NAME    = EARTH
REF_FRAME      = TEME
TIME_SYSTEM    = UTC
MEAN_ELEMENT_THEORY = SGP/SGP4

EPOCH          = 2026-03-11T21:41:40.885152
MEAN_MOTION    = 15.29846770
ECCENTRICITY   = .00127485
INCLINATION    = 51.8837
RA_OF_ASC_NODE = 209.1524
ARG_OF_PERICENTER = 69.4648
MEAN_ANOMALY   = 290.7702

EPHEMERIS_TYPE = 0
CLASSIFICATION_TYPE = U
NORAD_CAT_ID   = 67776
ELEMENT_SET_NO = 999
REV_AT_EPOCH   = 542
BSTAR          = -.9881209E-3
MEAN_MOTION_DOT = -.29302E-3
MEAN_MOTION_DDOT = 0

